{"type": "FeatureCollection", "features": [ {"type": "Feature", "properties": {"norad_id": 39634, "name": "SENTINEL-1A", "group": "resource", "lat": 77.25491944836278, "lon": -40.89447049532159, "alt_km": 687.6129980362039, "timestamp": "2025-12-19T10:50:00.848725+00:00", "meta": {"OBJECT_NAME": "SENTINEL-1A", "OBJECT_ID": "2014-016A", "EPOCH": "2025-12-18T22:56:51.022176", "MEAN_MOTION": 14.59201776, "ECCENTRICITY": 0.00012291, "INCLINATION": 98.1798, "RA_OF_ASC_NODE": 358.1061, "ARG_OF_PERICENTER": 82.7076, "MEAN_ANOMALY": 277.4264, "EPHEMERIS_TYPE": 0, "CLASSIFICATION_TYPE": "U", "NORAD_CAT_ID": 39634, "ELEMENT_SET_NO": 999, "REV_AT_EPOCH": 62373, "BSTAR": 4.4408232e-05, "MEAN_MOTION_DOT": 1.64e-06, "MEAN_MOTION_DDOT": 0}, "tle": {"line1": "1 39634U 14016A   25352.95614609  .00000164  00000+0  44408-4 0  9998", "line2": "2 39634  98.1798 358.1061 0001229  82.7076 277.4264 14.59201776623732"}}, "geometry": {"type": "Point", "coordinates": [-40.89447049532159, 77.25491944836278]}}, {"type": "Feature", "properties": {"norad_id": 39731, "name": "KAZEOSAT 1", "group": "resource", "lat": 1.20630522587745, "lon": 65.03151932227964, "alt_km": 754.5512061744612, "timestamp": "2025-12-19T10:50:00.848735+00:00", "meta": {"OBJECT_NAME": "KAZEOSAT 1", "OBJECT_ID": "2014-024A", "EPOCH": "2025-12-18T23:10:16.310784", "MEAN_MOTION": 14.42065284, "ECCENTRICITY": 0.00011534, "INCLINATION": 98.3434, "RA_OF_ASC_NODE": 64.7336, "ARG_OF_PERICENTER": 97.78, "MEAN_ANOMALY": 262.3521, "EPHEMERIS_TYPE": 0, "CLASSIFICATION_TYPE": "U", "NORAD_CAT_ID": 39731, "ELEMENT_SET_NO": 999, "REV_AT_EPOCH": 61258, "BSTAR": 2.4239836e-05, "MEAN_MOTION_DOT": 3.7e-07, "MEAN_MOTION_DDOT": 0}, "tle": {"line1": "1 39731U 14024A   25352.96546656  .00000037  00000+0  24240-4 0  9993", "line2": "2 39731  98.3434  64.7336 0001153  97.7800 262.3521 14.42065284612585"}}, "geometry": {"type": "Point", "coordinates": [65.03151932227964, 1.20630522587745]}}, {"type": "Feature", "properties": {"norad_id": 39766, "name": "ALOS-2", "group": "resource", "lat": 66.37057001116851, "lon": 69.64114970728188, "alt_km": 623.7190648036949, "timestamp": "2025-12-19T10:50:00.848745+00:00", "meta": {"OBJECT_NAME": "ALOS-2", "OBJECT_ID": "2014-029A", "EPOCH": "2025-12-19T02:24:46.375200", "MEAN_MOTION": 14.79465658, "ECCENTRICITY": 0.0001401, "INCLINATION": 97.9229, "RA_OF_ASC_NODE": 87.8563, "ARG_OF_PERICENTER": 102.1345, "MEAN_ANOMALY": 258.0023, "EPHEMERIS_TYPE": 0, "CLASSIFICATION_TYPE": "U", "NORAD_CAT_ID": 39766, "ELEMENT_SET_NO": 999, "REV_AT_EPOCH": 62495, "BSTAR": 0.0002541, "MEAN_MOTION_DOT": 1.846e-05, "MEAN_MOTION_DDOT": 0}, "tle": {"line1": "1 39766U 14029A   25353.10053675  .00001846  00000+0  25410-3 0  9995", "line2": "2 39766  97.9229  87.8563 0001401 102.1345 258.0023 14.79465658624951"}}, "geometry": {"type": "Point", "coordinates": [69.64114970728188, 66.37057001116851]}}, {"type": "Feature", "properties": {"norad_id": 40010, "name": "KAZEOSAT 2", "group": "resource", "lat": 63.676450237862085, "lon": 32.96934652399875, "alt_km": 604.6739178614462, "timestamp": "2025-12-19T10:50:00.848756+00:00", "meta": {"OBJECT_NAME": "KAZEOSAT 2", "OBJECT_ID": "2014-033A", "EPOCH": "2025-12-18T22:59:50.368704", "MEAN_MOTION": 14.8517952, "ECCENTRICITY": 0.00081163, "INCLINATION": 97.5502, "RA_OF_ASC_NODE": 196.9514, "ARG_OF_PERICENTER": 184.6213, "MEAN_ANOMALY": 175.493, "EPHEMERIS_TYPE": 0, "CLASSIFICATION_TYPE": "U", "NORAD_CAT_ID": 40010, "ELEMENT_SET_NO": 999, "REV_AT_EPOCH": 62220, "BSTAR": 9.5634658e-05, "MEAN_MOTION_DOT": 7.69e-06, "MEAN_MOTION_DDOT": 0}, "tle": {"line1": "1 40010U 14033A   25352.95822186  .00000769  00000+0  95635-4 0  9997", "line2": "2 40010  97.5502 196.9514 0008116 184.6213 175.4930 14.85179520622204"}}, "geometry": {"type": "Point", "coordinates": [32.96934652399875, 63.676450237862085]}}, {"type": "Feature", "properties": {"norad_id": 40011, "name": "HODOYOSHI-4", "group": "resource", "lat": -76.97937400156533, "lon": -32.94348183634514, "alt_km": 610.5083415310046, "timestamp": "2025-12-19T10:50:00.848766+00:00", "meta": {"OBJECT_NAME": "HODOYOSHI-4", "OBJECT_ID": "2014-033B", "EPOCH": "2025-12-18T22:22:16.458816", "MEAN_MOTION": 14.87502516, "ECCENTRICITY": 0.00236099, "INCLINATION": 97.5406, "RA_OF_ASC_NODE": 181.5102, "ARG_OF_PERICENTER": 179.9029, "MEAN_ANOMALY": 180.2197, "EPHEMERIS_TYPE": 0, "CLASSIFICATION_TYPE": "U", "NORAD_CAT_ID": 40011, "ELEMENT_SET_NO": 999, "REV_AT_EPOCH": 62200, "BSTAR": 0.0001547358, "MEAN_MOTION_DOT": 1.358e-05, "MEAN_MOTION_DDOT": 0}, "tle": {"line1": "1 40011U 14033B   25352.93213494  .00001358  00000+0  15474-3 0  9999", "line2": "2 40011  97.5406 181.5102 0023609 179.9029 180.2197 14.87502516622001"}}, "geometry": {"type": "Point", "coordinates": [-32.94348183634514, -76.97937400156533]}}, {"type": "Feature", "properties": {"norad_id": 40013, "name": "DEIMOS-2", "group": "resource", "lat": -8.916044886450015, "lon": 47.828218652129884, "alt_km": 592.5996884353381, "timestamp": "2025-12-19T10:50:00.848776+00:00", "meta": {"OBJECT_NAME": "DEIMOS-2", "OBJECT_ID": "2014-033D", "EPOCH": "2025-12-18T22:43:51.110112", "MEAN_MOTION": 14.93000264, "ECCENTRICITY": 0.00013584, "INCLINATION": 97.6067, "RA_OF_ASC_NODE": 228.542, "ARG_OF_PERICENTER": 107.263, "MEAN_ANOMALY": 252.8739, "EPHEMERIS_TYPE": 0, "CLASSIFICATION_TYPE": "U", "NORAD_CAT_ID": 40013, "ELEMENT_SET_NO": 999, "REV_AT_EPOCH": 61082, "BSTAR": 0.0002427649, "MEAN_MOTION_DOT": 2.469e-05, "MEAN_MOTION_DDOT": 0}, "tle": {"line1": "1 40013U 14033D   25352.94711933  .00002469  00000+0  24276-3 0  9997", "line2": "2 40013  97.6067 228.5420 0001358 107.2630 252.8739 14.93000264610826"}}, "geometry": {"type": "Point", "coordinates": [47.828218652129884, -8.916044886450015]}}, {"type": "Feature", "properties": {"norad_id": 40015, "name": "HODOYOSHI-3", "group": "resource", "lat": 59.480747993046336, "lon": -7.878562272384588, "alt_km": 614.3287268303156, "timestamp": "2025-12-19T10:50:00.848786+00:00", "meta": {"OBJECT_NAME": "HODOYOSHI-3", "OBJECT_ID": "2014-033F", "EPOCH": "2025-12-18T22:58:21.507168", "MEAN_MOTION": 14.84827132, "ECCENTRICITY": 0.00321499, "INCLINATION": 97.6203, "RA_OF_ASC_NODE": 158.522, "ARG_OF_PERICENTER": 226.7251, "MEAN_ANOMALY": 133.1281, "EPHEMERIS_TYPE": 0, "CLASSIFICATION_TYPE": "U", "NORAD_CAT_ID": 40015, "ELEMENT_SET_NO": 999, "REV_AT_EPOCH": 62087, "BSTAR": 0.00015428862, "MEAN_MOTION_DOT": 1.27e-05, "MEAN_MOTION_DDOT": 0}, "tle": {"line1": "1 40015U 14033F   25352.95719337  .00001270  00000+0  15429-3 0  9995", "line2": "2 40015  97.6203 158.5220 0032149 226.7251 133.1281 14.84827132620878"}}, "geometry": {"type": "Point", "coordinates": [-7.878562272384588, 59.480747993046336]}}, {"type": "Feature", "properties": {"norad_id": 40053, "name": "SPOT 7", "group": "resource", "lat": -18.012957479853565, "lon": 58.023537148902875, "alt_km": 695.9814334354387, "timestamp": "2025-12-19T10:50:00.848797+00:00", "meta": {"OBJECT_NAME": "SPOT 7", "OBJECT_ID": "2014-034A", "EPOCH": "2025-12-18T23:24:31.813344", "MEAN_MOTION": 14.60741449, "ECCENTRICITY": 0.00015442, "INCLINATION": 98.0905, "RA_OF_ASC_NODE": 54.9074, "ARG_OF_PERICENTER": 83.7619, "MEAN_ANOMALY": 276.3758, "EPHEMERIS_TYPE": 0, "CLASSIFICATION_TYPE": "U", "NORAD_CAT_ID": 40053, "ELEMENT_SET_NO": 999, "REV_AT_EPOCH": 61082, "BSTAR": 0.00010171102, "MEAN_MOTION_DOT": 4.5e-06, "MEAN_MOTION_DDOT": 0}, "tle": {"line1": "1 40053U 14034A   25352.97536821  .00000450  00000+0  10171-3 0  9993", "line2": "2 40053  98.0905  54.9074 0001544  83.7619 276.3758 14.60741449610827"}}, "geometry": {"type": "Point", "coordinates": [58.023537148902875, -18.012957479853565]}}, {"type": "Feature", "properties": {"norad_id": 40072, "name": "SKYSAT-B", "group": "resource", "lat": -18.906160682300367, "lon": 114.62444747179806, "alt_km": 609.629161395108, "timestamp": "2025-12-19T10:50:00.848806+00:00", "meta": {"OBJECT_NAME": "SKYSAT-B", "OBJECT_ID": "2014-037D", "EPOCH": "2025-12-18T19:24:39.195072", "MEAN_MOTION": 14.87348069, "ECCENTRICITY": 0.00065151, "INCLINATION": 98.3619, "RA_OF_ASC_NODE": 296.8355, "ARG_OF_PERICENTER": 133.0045, "MEAN_ANOMALY": 227.1716, "EPHEMERIS_TYPE": 0, "CLASSIFICATION_TYPE": "U", "NORAD_CAT_ID": 40072, "ELEMENT_SET_NO": 999, "REV_AT_EPOCH": 61914, "BSTAR": 0.00015223593, "MEAN_MOTION_DOT": 1.314e-05, "MEAN_MOTION_DDOT": 0}, "tle": {"line1": "1 40072U 14037D   25352.80878698  .00001314  00000+0  15224-3 0  9994", "line2": "2 40072  98.3619 296.8355 0006515 133.0045 227.1716 14.87348069619149"}}, "geometry": {"type": "Point", "coordinates": [114.62444747179806, -18.906160682300367]}}, {"type": "Feature", "properties": {"norad_id": 40115, "name": "WORLDVIEW-3 (WV-3)", "group": "resource", "lat": 40.10580991497978, "lon": 58.95159266105867, "alt_km": 611.6834080795898, "timestamp": "2025-12-19T10:50:00.848816+00:00", "meta": {"OBJECT_NAME": "WORLDVIEW-3 (WV-3)", "OBJECT_ID": "2014-048A", "EPOCH": "2025-12-18T21:42:40.567680", "MEAN_MOTION": 14.84661456, "ECCENTRICITY": 0.00017113, "INCLINATION": 97.8774, "RA_OF_ASC_NODE": 65.108, "ARG_OF_PERICENTER": 138.8396, "MEAN_ANOMALY": 221.2947, "EPHEMERIS_TYPE": 0, "CLASSIFICATION_TYPE": "U", "NORAD_CAT_ID": 40115, "ELEMENT_SET_NO": 999, "REV_AT_EPOCH": 61515, "BSTAR": 0.00010574139, "MEAN_MOTION_DOT": 8.41e-06, "MEAN_MOTION_DDOT": 0}, "tle": {"line1": "1 40115U 14048A   25352.90463620  .00000841  00000+0  10574-3 0  9997", "line2": "2 40115  97.8774  65.1080 0001711 138.8396 221.2947 14.84661456615153"}}, "geometry": {"type": "Point", "coordinates": [58.95159266105867, 40.10580991497978]}}]}